FLOCK 4BE-3             
1 60561U 24149CX  26204.22487288  .00018748  00000+0  43238-3 0  9993
2 60561  97.3685 288.5068 0005498 146.3953 213.7644 15.42603740107896
FLOCK 4BE-19            
1 60563U 24149CZ  26204.19723177  .00026078  00000+0  53587-3 0  9994
2 60563  97.3733 290.2079 0006176 152.1557 208.0024 15.45955159107989
FLOCK 4G-8              
1 62613U 25009E   26204.18527524  .00010308  00000+0  35346-3 0  9997
2 62613  97.3995 286.0520 0004889 166.3995 193.7378 15.30356602 84420
FLOCK 4G-13             
1 62621U 25009N   26204.17137927  .00098212  00000+0  17344-2 0  9996
2 62621  97.3935 288.2217 0006588 178.4244 181.7030 15.49990996 84566
FLOCK 4G-9              
1 62622U 25009P   26204.15162155  .00009302  00000+0  33676-3 0  9995
2 62622  97.3947 284.8474 0004886 176.8438 183.2833 15.28609603 84357
FLOCK 4G-7              
1 62624U 25009R   26204.17130288  .00011104  00000+0  38492-3 0  9995
2 62624  97.3932 285.2982 0003368 160.5335 199.6035 15.29988316 84405
FLOCK 4G-12             
1 62625U 25009S   26204.16707426  .00011679  00000+0  40574-3 0  9990
2 62625  97.4010 285.8510 0004953 164.0549 196.0849 15.29896309 84408
FLOCK 4G-11             
1 62629U 25009W   26204.15136385  .00011642  00000+0  40314-3 0  9995
2 62629  97.3912 285.3844 0003411 161.8330 198.3033 15.30008594 84412
FLOCK 4G-26             
1 62633U 25009AA  26204.22932134  .00012735  00000+0  43794-3 0  9993
2 62633  97.4008 286.0769 0004359 154.3716 205.7741 15.30210618 84427
FLOCK 4G-28             
1 62634U 25009AB  26204.16784869  .00009440  00000+0  27696-3 0  9999
2 62634  97.4015 288.8647 0002724 145.3729 214.7692 15.35382292 84607
FLOCK 4G-24             
1 62637U 25009AE  26204.17370087  .00010824  00000+0  36957-3 0  9994
2 62637  97.4013 286.3309 0004275 144.7957 215.3567 15.30483228 84430
FLOCK 4G-3              
1 62639U 25009AG  26204.16946159  .00009900  00000+0  34353-3 0  9995
2 62639  97.4014 286.0287 0003890 149.3681 210.7788 15.29984450 84404
FLOCK 4G-27             
1 62641U 25009AJ  26204.18939185  .00009595  00000+0  33378-3 0  9997
2 62641  97.3923 285.3862 0003234 150.4251 209.7173 15.29914798 84408
FLOCK 4G-29             
1 62642U 25009AK  26204.17450466  .00006652  00000+0  23205-3 0  9996
2 62642  97.4010 285.9931 0004063 145.3740 214.7766 15.29942880 84404
FLOCK 4G-22             
1 62645U 25009AN  26204.19336817  .00011396  00000+0  39613-3 0  9995
2 62645  97.3997 286.0436 0003582 143.4334 216.7152 15.29891332 84423
FLOCK 4G-25             
1 62646U 25009AP  26204.23126939  .00011918  00000+0  41108-3 0  9995
2 62646  97.4004 286.1637 0003035 145.4444 214.6995 15.30131322 84436
