{"fetched_at":"2026-07-23T17:55:10.095Z","source":"https://celestrak.org/NORAD/elements/gp.php?GROUP=planet&FORMAT=JSON","constellation":"superdove","records":[{"OBJECT_NAME":"FLOCK 4BE-3","OBJECT_ID":"2024-149CX","EPOCH":"2026-07-23T05:23:49.016832","CLASSIFICATION_TYPE":"U","MEAN_MOTION":15.4260374,"ECCENTRICITY":0.00054987,"INCLINATION":97.3685,"RA_OF_ASC_NODE":288.5068,"ARG_OF_PERICENTER":146.3953,"MEAN_ANOMALY":213.7644,"EPHEMERIS_TYPE":0,"NORAD_CAT_ID":60561,"ELEMENT_SET_NO":999,"REV_AT_EPOCH":10789,"BSTAR":0.00043237763,"MEAN_MOTION_DOT":0.00018748,"MEAN_MOTION_DDOT":0},{"OBJECT_NAME":"FLOCK 4BE-19","OBJECT_ID":"2024-149CZ","EPOCH":"2026-07-23T04:44:00.824928","CLASSIFICATION_TYPE":"U","MEAN_MOTION":15.45955159,"ECCENTRICITY":0.0006176,"INCLINATION":97.3733,"RA_OF_ASC_NODE":290.2079,"ARG_OF_PERICENTER":152.1557,"MEAN_ANOMALY":208.0024,"EPHEMERIS_TYPE":0,"NORAD_CAT_ID":60563,"ELEMENT_SET_NO":999,"REV_AT_EPOCH":10798,"BSTAR":0.00053586658,"MEAN_MOTION_DOT":0.00026078,"MEAN_MOTION_DDOT":0},{"OBJECT_NAME":"FLOCK 4G-8","OBJECT_ID":"2025-009E","EPOCH":"2026-07-23T04:26:47.780736","CLASSIFICATION_TYPE":"U","MEAN_MOTION":15.30356602,"ECCENTRICITY":0.00048897,"INCLINATION":97.3995,"RA_OF_ASC_NODE":286.052,"ARG_OF_PERICENTER":166.3995,"MEAN_ANOMALY":193.7378,"EPHEMERIS_TYPE":0,"NORAD_CAT_ID":62613,"ELEMENT_SET_NO":999,"REV_AT_EPOCH":8442,"BSTAR":0.00035345635,"MEAN_MOTION_DOT":0.00010308,"MEAN_MOTION_DDOT":0},{"OBJECT_NAME":"FLOCK 4G-13","OBJECT_ID":"2025-009N","EPOCH":"2026-07-23T04:06:47.168928","CLASSIFICATION_TYPE":"U","MEAN_MOTION":15.49990996,"ECCENTRICITY":0.00065882,"INCLINATION":97.3935,"RA_OF_ASC_NODE":288.2217,"ARG_OF_PERICENTER":178.4244,"MEAN_ANOMALY":181.703,"EPHEMERIS_TYPE":0,"NORAD_CAT_ID":62621,"ELEMENT_SET_NO":999,"REV_AT_EPOCH":8456,"BSTAR":0.0017343516,"MEAN_MOTION_DOT":0.00098212,"MEAN_MOTION_DDOT":0},{"OBJECT_NAME":"FLOCK 4G-9","OBJECT_ID":"2025-009P","EPOCH":"2026-07-23T03:38:20.101920","CLASSIFICATION_TYPE":"U","MEAN_MOTION":15.28609603,"ECCENTRICITY":0.00048861,"INCLINATION":97.3947,"RA_OF_ASC_NODE":284.8474,"ARG_OF_PERICENTER":176.8438,"MEAN_ANOMALY":183.2833,"EPHEMERIS_TYPE":0,"NORAD_CAT_ID":62622,"ELEMENT_SET_NO":999,"REV_AT_EPOCH":8435,"BSTAR":0.00033675829,"MEAN_MOTION_DOT":0.00009302,"MEAN_MOTION_DDOT":0},{"OBJECT_NAME":"FLOCK 4G-7","OBJECT_ID":"2025-009R","EPOCH":"2026-07-23T04:06:40.568832","CLASSIFICATION_TYPE":"U","MEAN_MOTION":15.29988316,"ECCENTRICITY":0.00033685,"INCLINATION":97.3932,"RA_OF_ASC_NODE":285.2982,"ARG_OF_PERICENTER":160.5335,"MEAN_ANOMALY":199.6035,"EPHEMERIS_TYPE":0,"NORAD_CAT_ID":62624,"ELEMENT_SET_NO":999,"REV_AT_EPOCH":8440,"BSTAR":0.00038491776,"MEAN_MOTION_DOT":0.00011104,"MEAN_MOTION_DDOT":0},{"OBJECT_NAME":"FLOCK 4G-12","OBJECT_ID":"2025-009S","EPOCH":"2026-07-23T04:00:35.216064","CLASSIFICATION_TYPE":"U","MEAN_MOTION":15.29896309,"ECCENTRICITY":0.00049538,"INCLINATION":97.401,"RA_OF_ASC_NODE":285.851,"ARG_OF_PERICENTER":164.0549,"MEAN_ANOMALY":196.0849,"EPHEMERIS_TYPE":0,"NORAD_CAT_ID":62625,"ELEMENT_SET_NO":999,"REV_AT_EPOCH":8440,"BSTAR":0.0004057422,"MEAN_MOTION_DOT":0.00011679,"MEAN_MOTION_DDOT":0},{"OBJECT_NAME":"FLOCK 4G-11","OBJECT_ID":"2025-009W","EPOCH":"2026-07-23T03:37:57.836640","CLASSIFICATION_TYPE":"U","MEAN_MOTION":15.30008594,"ECCENTRICITY":0.00034111,"INCLINATION":97.3912,"RA_OF_ASC_NODE":285.3844,"ARG_OF_PERICENTER":161.833,"MEAN_ANOMALY":198.3033,"EPHEMERIS_TYPE":0,"NORAD_CAT_ID":62629,"ELEMENT_SET_NO":999,"REV_AT_EPOCH":8441,"BSTAR":0.00040314193,"MEAN_MOTION_DOT":0.00011642,"MEAN_MOTION_DDOT":0},{"OBJECT_NAME":"FLOCK 4G-26","OBJECT_ID":"2025-009AA","EPOCH":"2026-07-23T05:30:13.363776","CLASSIFICATION_TYPE":"U","MEAN_MOTION":15.30210618,"ECCENTRICITY":0.00043592,"INCLINATION":97.4008,"RA_OF_ASC_NODE":286.0769,"ARG_OF_PERICENTER":154.3716,"MEAN_ANOMALY":205.7741,"EPHEMERIS_TYPE":0,"NORAD_CAT_ID":62633,"ELEMENT_SET_NO":999,"REV_AT_EPOCH":8442,"BSTAR":0.00043793821,"MEAN_MOTION_DOT":0.00012735,"MEAN_MOTION_DDOT":0},{"OBJECT_NAME":"FLOCK 4G-28","OBJECT_ID":"2025-009AB","EPOCH":"2026-07-23T04:01:42.126816","CLASSIFICATION_TYPE":"U","MEAN_MOTION":15.35382292,"ECCENTRICITY":0.00027246,"INCLINATION":97.4015,"RA_OF_ASC_NODE":288.8647,"ARG_OF_PERICENTER":145.3729,"MEAN_ANOMALY":214.7692,"EPHEMERIS_TYPE":0,"NORAD_CAT_ID":62634,"ELEMENT_SET_NO":999,"REV_AT_EPOCH":8460,"BSTAR":0.00027696268,"MEAN_MOTION_DOT":0.0000944,"MEAN_MOTION_DDOT":0},{"OBJECT_NAME":"FLOCK 4G-24","OBJECT_ID":"2025-009AE","EPOCH":"2026-07-23T04:10:07.755168","CLASSIFICATION_TYPE":"U","MEAN_MOTION":15.30483228,"ECCENTRICITY":0.00042753,"INCLINATION":97.4013,"RA_OF_ASC_NODE":286.3309,"ARG_OF_PERICENTER":144.7957,"MEAN_ANOMALY":215.3567,"EPHEMERIS_TYPE":0,"NORAD_CAT_ID":62637,"ELEMENT_SET_NO":999,"REV_AT_EPOCH":8443,"BSTAR":0.0003695657,"MEAN_MOTION_DOT":0.00010824,"MEAN_MOTION_DDOT":0},{"OBJECT_NAME":"FLOCK 4G-3","OBJECT_ID":"2025-009AG","EPOCH":"2026-07-23T04:04:01.481376","CLASSIFICATION_TYPE":"U","MEAN_MOTION":15.2998445,"ECCENTRICITY":0.000389,"INCLINATION":97.4014,"RA_OF_ASC_NODE":286.0287,"ARG_OF_PERICENTER":149.3681,"MEAN_ANOMALY":210.7788,"EPHEMERIS_TYPE":0,"NORAD_CAT_ID":62639,"ELEMENT_SET_NO":999,"REV_AT_EPOCH":8440,"BSTAR":0.00034352821,"MEAN_MOTION_DOT":0.000099,"MEAN_MOTION_DDOT":0},{"OBJECT_NAME":"FLOCK 4G-27","OBJECT_ID":"2025-009AJ","EPOCH":"2026-07-23T04:32:43.455840","CLASSIFICATION_TYPE":"U","MEAN_MOTION":15.29914798,"ECCENTRICITY":0.00032341,"INCLINATION":97.3923,"RA_OF_ASC_NODE":285.3862,"ARG_OF_PERICENTER":150.4251,"MEAN_ANOMALY":209.7173,"EPHEMERIS_TYPE":0,"NORAD_CAT_ID":62641,"ELEMENT_SET_NO":999,"REV_AT_EPOCH":8440,"BSTAR":0.00033377517,"MEAN_MOTION_DOT":0.00009595,"MEAN_MOTION_DDOT":0},{"OBJECT_NAME":"FLOCK 4G-29","OBJECT_ID":"2025-009AK","EPOCH":"2026-07-23T04:11:17.202624","CLASSIFICATION_TYPE":"U","MEAN_MOTION":15.2994288,"ECCENTRICITY":0.00040634,"INCLINATION":97.401,"RA_OF_ASC_NODE":285.9931,"ARG_OF_PERICENTER":145.374,"MEAN_ANOMALY":214.7766,"EPHEMERIS_TYPE":0,"NORAD_CAT_ID":62642,"ELEMENT_SET_NO":999,"REV_AT_EPOCH":8440,"BSTAR":0.00023204848,"MEAN_MOTION_DOT":0.00006652,"MEAN_MOTION_DDOT":0},{"OBJECT_NAME":"FLOCK 4G-22","OBJECT_ID":"2025-009AN","EPOCH":"2026-07-23T04:38:27.009888","CLASSIFICATION_TYPE":"U","MEAN_MOTION":15.29891332,"ECCENTRICITY":0.00035823,"INCLINATION":97.3997,"RA_OF_ASC_NODE":286.0436,"ARG_OF_PERICENTER":143.4334,"MEAN_ANOMALY":216.7152,"EPHEMERIS_TYPE":0,"NORAD_CAT_ID":62645,"ELEMENT_SET_NO":999,"REV_AT_EPOCH":8442,"BSTAR":0.00039612765,"MEAN_MOTION_DOT":0.00011396,"MEAN_MOTION_DDOT":0},{"OBJECT_NAME":"FLOCK 4G-25","OBJECT_ID":"2025-009AP","EPOCH":"2026-07-23T05:33:01.675296","CLASSIFICATION_TYPE":"U","MEAN_MOTION":15.30131322,"ECCENTRICITY":0.00030355,"INCLINATION":97.4004,"RA_OF_ASC_NODE":286.1637,"ARG_OF_PERICENTER":145.4444,"MEAN_ANOMALY":214.6995,"EPHEMERIS_TYPE":0,"NORAD_CAT_ID":62646,"ELEMENT_SET_NO":999,"REV_AT_EPOCH":8443,"BSTAR":0.00041108016,"MEAN_MOTION_DOT":0.00011918,"MEAN_MOTION_DDOT":0}]}
